ONEWEB-0196             
1 48218U 21031J   25309.50686279 -.00000146  00000+0 -42931-3 0  9996
2 48218  87.8996 334.2728 0001959  90.6189 269.5165 13.14502748218840
ONEWEB-0183             
1 48219U 21031K   25309.48150261 -.00000094  00000+0 -28761-3 0  9998
2 48219  87.8996 334.2852 0001643  90.3756 269.7562 13.14504354218934
ONEWEB-0185             
1 48220U 21031L   25309.50768117  .00000091  00000+0  21203-3 0  9997
2 48220  87.8999 334.2498 0001759  81.5212 278.6117 13.14502210218868
ONEWEB-0187             
1 48221U 21031M   25309.86828630 -.00000203  00000+0 -58167-3 0  9990
2 48221  87.8999 334.2235 0001922  85.2414 274.8935 13.14500429218928
ONEWEB-0192             
1 48222U 21031N   25309.53383805  .00000141  00000+0  34699-3 0  9998
2 48222  87.8995 334.2815 0001936  93.7645 266.3706 13.14503770218793
ONEWEB-0219             
1 48223U 21031P   25309.43709438  .00000181  00000+0  45368-3 0  9991
2 48223  87.9002 334.2757 0001817  85.7378 274.3959 13.14505124218986
ONEWEB-0202             
1 48224U 21031Q   25309.49420689 -.00000156  00000+0 -45507-3 0  9995
2 48224  87.9001 334.2780 0002588  89.5620 270.5806 13.14503651218971
ONEWEB-0204             
1 48225U 21031R   25309.98499340  .00000177  00000+0  44352-3 0  9998
2 48225  87.9002 334.1686 0001537  91.8523 268.2783 13.14500460218937
